STARLINK-36921          
1 68019U 26040E   26086.84510061  .00171631  00000+0  11253-2 0  9995
2 68019  97.2857  36.1945 0002417  65.8911 294.2607 15.75256287  4211
STARLINK-36928          
1 68020U 26040F   26086.84615995  .00223768  00000+0  14578-2 0  9991
2 68020  97.2862  36.1914 0001608  95.0995 265.0454 15.75258323  4212
STARLINK-36858          
1 68021U 26040G   26083.53835390  .00276588  00000+0  17848-2 0  9999
2 68021  97.2853  32.8877 0001694  78.8231 281.3225 15.75331784  3704
STARLINK-36916          
1 68022U 26040H   26086.83335647 -.01892105  00000+0 -16449-1 0  9993
2 68022  97.2858  36.1828 0001459  93.9924 202.2032 15.72356541  5344
STARLINK-36871          
1 68023U 26040J   26086.84368580  .00201862  00000+0  13198-2 0  9997
2 68023  97.2840  36.1925 0000851 123.5375 236.5972 15.75237638  4215
STARLINK-36891          
1 68024U 26040K   26086.84298294  .00174611  00000+0  11453-2 0  9995
2 68024  97.2867  36.1942 0001281 105.8458 254.2948 15.75238981  4219
STARLINK-36378          
1 68025U 26040L   26086.84157107  .00229625  00000+0  14943-2 0  9996
2 68025  97.2857  36.1987 0001688 114.0948 246.0494 15.75268467  4212
STARLINK-36884          
1 68026U 26040M   26086.84192509  .00211588  00000+0  13810-2 0  9993
2 68026  97.2864  36.1963 0000861  85.4974 274.6390 15.75249298  4210
STARLINK-36940          
1 68027U 26040N   26086.83309963  .00264956  00000+0  17193-2 0  9992
2 68027  97.2853  36.2150 0001580  92.9808 267.1638 15.75235329  4218
STARLINK-36253          
1 68028U 26040P   26086.83335647 -.01930915  00000+0 -58271-1 0  9990
2 68028  97.3014  35.6853 0003205  96.5556 113.8470 15.37747562  5440
STARLINK-36944          
1 68029U 26040Q   26086.84086281  .00284651  00000+0  18394-2 0  9998
2 68029  97.2867  36.1967 0001223 105.1535 254.9866 15.75277247  4210
STARLINK-36942          
1 68030U 26040R   26086.84015995  .00193568  00000+0  12662-2 0  9992
2 68030  97.2847  36.2010 0001673 102.7561 257.3891 15.75249802  4212
STARLINK-36913          
1 68031U 26040S   26086.83335647 -.01921715  00000+0 -20277-1 0  9997
2 68031  97.2852  36.1872 0001540 101.7655 196.7474 15.67216608  5347
STARLINK-36935          
1 68032U 26040T   26086.83451345  .00170242  00000+0  11171-2 0  9994
2 68032  97.2860  36.2096 0001302  86.0552 274.0862 15.75241727  4218
STARLINK-36947          
1 68033U 26040U   26086.83874879  .00221781  00000+0  14452-2 0  9996
2 68033  97.2847  36.2026 0001740  94.9034 265.2430 15.75259027  4211
STARLINK-36939          
1 68034U 26040V   26086.83871882 -.00850546  00000+0 -80166-2 0  9992
2 68034  97.2853  36.2063 0000659  96.4703 263.6634 15.69508589  4219
STARLINK-36943          
1 68035U 26040W   26086.83335647 -.00403788  00000+0 -28074-2 0  9999
2 68035  97.2853  36.2126 0000829  59.3454 292.2237 15.75425976  5392
